[{"OBJECT_NAME":"STARLINK-2480","OBJECT_ID":"2021-027AX","EPOCH":"2026-03-10T00:00:02.999808","MEAN_MOTION":15.0892407,"ECCENTRICITY":0.00016687,"INCLINATION":53.0606,"RA_OF_ASC_NODE":150.1899,"ARG_OF_PERICENTER":123.9826,"MEAN_ANOMALY":133.8793,"EPHEMERIS_TYPE":0,"CLASSIFICATION_TYPE":"U","NORAD_CAT_ID":48137,"ELEMENT_SET_NO":999,"REV_AT_EPOCH":579,"BSTAR":0.0053933076,"MEAN_MOTION_DOT":0.00086813,"MEAN_MOTION_DDOT":0},{"OBJECT_NAME":"JILIN-01 KUANFU 02B 5","OBJECT_ID":"2024-169E","EPOCH":"2026-03-09T22:46:28.718400","MEAN_MOTION":15.09244096,"ECCENTRICITY":0.00111722,"INCLINATION":97.556,"RA_OF_ASC_NODE":160.0628,"ARG_OF_PERICENTER":294.0678,"MEAN_ANOMALY":65.9381,"EPHEMERIS_TYPE":0,"CLASSIFICATION_TYPE":"U","NORAD_CAT_ID":61193,"ELEMENT_SET_NO":999,"REV_AT_EPOCH":8086,"BSTAR":0.00034816655,"MEAN_MOTION_DOT":5.486e-5,"MEAN_MOTION_DDOT":0}]
